[
    {
        "CCSDS_OMM_VERS": "3.0",
        "COMMENT": "GENERATED VIA SPACE-TRACK.ORG API",
        "CREATION_DATE": "2025-03-02T18:08:23",
        "ORIGINATOR": "18 SPCS",
        "OBJECT_NAME": "BEIDOU 3M20",
        "OBJECT_ID": "2019-090B",
        "CENTER_NAME": "EARTH",
        "REF_FRAME": "TEME",
        "TIME_SYSTEM": "UTC",
        "MEAN_ELEMENT_THEORY": "SGP4",
        "EPOCH": "2025-03-02T10:09:57.030336",
        "MEAN_MOTION": "1.86231274",
        "ECCENTRICITY": "0.00176300",
        "INCLINATION": "56.1450",
        "RA_OF_ASC_NODE": "78.4680",
        "ARG_OF_PERICENTER": "296.9110",
        "MEAN_ANOMALY": "113.0961",
        "EPHEMERIS_TYPE": "0",
        "CLASSIFICATION_TYPE": "U",
        "NORAD_CAT_ID": "44865",
        "ELEMENT_SET_NO": "999",
        "REV_AT_EPOCH": "3543",
        "BSTAR": "0.00000000000000",
        "MEAN_MOTION_DOT": "0.00000008",
        "MEAN_MOTION_DDOT": "0.0000000000000",
        "SEMIMAJOR_AXIS": "27906.161",
        "PERIOD": "773.232",
        "APOAPSIS": "21577.225",
        "PERIAPSIS": "21478.828",
        "OBJECT_TYPE": "PAYLOAD",
        "RCS_SIZE": "LARGE",
        "COUNTRY_CODE": "PRC",
        "LAUNCH_DATE": "2019-12-16",
        "SITE": "XSC",
        "DECAY_DATE": null,
        "FILE": "4657142",
        "GP_ID": "282087970",
        "TLE_LINE0": "0 BEIDOU 3M20",
        "TLE_LINE1": "1 44865U 19090B   25061.42357674  .00000008  00000-0  00000-0 0  9996",
        "TLE_LINE2": "2 44865  56.1450  78.4680 0017630 296.9110 113.0961  1.86231274 35438"
    }
]